STARLINK-37008          
1 68564U 26070Y   26099.83335647 -.01058674  37417-3 -18517-2 0  9991
2 68564  53.1587 228.7608 0000763  53.8980 279.9550 16.01457300  2389
