{
  "norad_id": 68564,
  "name": "STARLINK-37008",
  "history": [
    {
      "epoch": "2026-04-09T20:00:01.999008Z",
      "apogee_km": 270.8895596213024,
      "perigee_km": 269.87499557954106,
      "latitude_deg": -20.847839657010432,
      "longitude_deg": 74.19547740881065,
      "height_km": 276.1440943610868,
      "semi_major_axis_km": 6648.519277600421,
      "eccentricity": 7.63e-05,
      "inclination_deg": 53.1587,
      "raan_deg": 228.7608,
      "arg_perigee_deg": 53.898,
      "mean_anomaly_deg": 279.955,
      "mean_motion_rev_day": 16.014573
    }
  ]
}